     3.02           N: GNSS NAV DATA    G: GPS              RINEX VERSION / TYPE
Spider v7.5.1.8670  SMO                 20251108 150349 UTC PGM / RUN BY / DATE
GPSA   3.0734D-08  0.0000D+00 -1.1921D-07  1.7881D-07       IONOSPHERIC CORR
GPSB   1.4131D+05 -9.8304D+04  6.5536D+04 -3.9322D+05       IONOSPHERIC CORR
GPUT -9.3132257462D-10-3.552713679D-15 147456 2392          TIME SYSTEM CORR
    18    18  2185     7                                    LEAP SECONDS
                                                            END OF HEADER
G16 2025 11 08 12 00 00 1.423289068043D-04 8.071765478235D-12 0.000000000000D+00
     8.500000000000D+01 2.881250000000D+01 4.364824501835D-09 2.399362110103D+00
     1.272186636925D-06 1.477339293342D-02 1.049228012562D-05 5.153592279434D+03
     5.616000000000D+05 1.676380634308D-08-3.101674426355D+00-3.054738044739D-07
     9.591912702808D-01 1.756875000000D+02 9.051993527293D-01-7.568886850606D-09
    -6.289547771487D-10 1.000000000000D+00 2.391000000000D+03 0.000000000000D+00
     2.000000000000D+00 0.000000000000D+00-1.071020960808D-08 8.500000000000D+01
     5.543400000000D+05                   
G17 2025 11 08 14 00 00 4.019681364298D-05-1.341504685115D-11 0.000000000000D+00
     3.700000000000D+01 1.542812500000D+02 3.995880515362D-09 2.375554473025D+00
     8.102506399155D-06 1.314004021697D-02 8.046627044678D-06 5.153794900894D+03
     5.688000000000D+05 9.499490261078D-08-2.083773114131D+00 8.754432201385D-08
     9.609885324354D-01 2.180000000000D+02-1.167450854386D+00-7.625317266502D-09
    -7.143154817646D-11 1.000000000000D+00 2.391000000000D+03 0.000000000000D+00
     2.000000000000D+00 0.000000000000D+00-1.117587089539D-08 3.700000000000D+01
     5.615400000000D+05                   
G18 2025 11 08 10 00 00-5.083903670311D-04 1.000444171950D-11 0.000000000000D+00
     8.800000000000D+01 2.750000000000D+01 4.497687555727D-09-1.722187280516D+00
     1.199543476105D-06 5.704780574888D-03-6.537884473801D-07 5.153663583755D+03
     5.544000000000D+05 1.117587089539D-08-1.073743581227D+00-8.195638656616D-08
     9.724649565317D-01 3.983750000000D+02-2.866707932681D+00-8.411778829043D-09
     1.810789712620D-10 1.000000000000D+00 2.391000000000D+03 0.000000000000D+00
     2.000000000000D+00 0.000000000000D+00-8.381903171539D-09 8.560000000000D+02
     5.471400000000D+05                   
G19 2025 11 08 14 00 00 6.737033836544D-04 2.273736754432D-12 0.000000000000D+00
     1.900000000000D+01 1.410312500000D+02 4.163387856693D-09-2.025536509052D+00
     7.342547178268D-06 1.084896817338D-02 7.899478077888D-06 5.153692295074D+03
     5.688000000000D+05-1.527369022369D-07-2.039789392204D+00-8.568167686462D-08
     9.601529531273D-01 2.288750000000D+02 2.892199009572D+00-7.899615184215D-09
     1.692927603658D-10 1.000000000000D+00 2.391000000000D+03 0.000000000000D+00
     2.000000000000D+00 0.000000000000D+00-1.536682248116D-08 1.900000000000D+01
     5.615400000000D+05                   
G20 2025 11 08 00 00 00 3.622733056545D-04-1.136868377216D-13 0.000000000000D+00
     4.800000000000D+01-1.317500000000D+02 4.362681771397D-09-4.102531287352D-01
    -6.850808858871D-06 3.651970764622D-03 5.293637514114D-06 5.153619981766D+03
     5.184000000000D+05 7.450580596924D-09-2.302708075206D-01 5.960464477539D-08
     9.606328853470D-01 2.785000000000D+02-2.150360668570D+00-8.183198119127D-09
    -2.142946375905D-10 1.000000000000D+00 2.391000000000D+03 0.000000000000D+00
     2.000000000000D+00 0.000000000000D+00-8.381903171539D-09 4.800000000000D+01
     5.111400000000D+05                   
G21 2025 11 08 00 00 00 3.165276721120D-04 1.409716787748D-11 0.000000000000D+00
     4.100000000000D+01-1.350312500000D+02 4.178031254298D-09-2.224219591491D+00
    -7.042661309242D-06 2.397730713710D-04 7.260590791702D-06 5.153707908630D+03
     5.184000000000D+05 1.490116119385D-08-2.441250542741D-02 3.166496753693D-08
     9.616624402778D-01 2.409062500000D+02-4.521410859254D-01-7.963546266865D-09
    -1.014327996596D-10 1.000000000000D+00 2.391000000000D+03 0.000000000000D+00
     2.800000000000D+00 0.000000000000D+00-9.313225746155D-09 4.100000000000D+01
     5.111400000000D+05                   
G22 2025 11 08 14 00 00-8.014915511012D-05 3.069544618484D-12 0.000000000000D+00
     4.300000000000D+01 2.631250000000D+01 4.351966786942D-09 3.008875127932D+00
     1.447275280952D-06 1.258280908223D-02 1.027993857861D-05 5.153637264252D+03
     5.688000000000D+05 4.097819328308D-08-3.098410065102D+00 1.005828380585D-07
     9.586112890937D-01 1.804375000000D+02-1.017011051964D+00-7.520670308736D-09
    -7.143154956424D-10 1.000000000000D+00 2.391000000000D+03 0.000000000000D+00
     2.000000000000D+00 0.000000000000D+00-1.117587089539D-08 4.300000000000D+01
     5.615400000000D+05                   
G23 2025 11 08 06 00 00 5.689891986549D-04 5.456968210638D-12 0.000000000000D+00
     9.800000000000D+01-1.314687500000D+02 3.901948097962D-09 1.420433861538D+00
    -6.757676601410D-06 5.888264277019D-03 5.951151251793D-06 5.153690650940D+03
     5.400000000000D+05 2.607703208923D-08-6.827515771723D-02 8.009374141693D-08
     9.868322003793D-01 2.808750000000D+02-2.793764278605D+00-7.860327499998D-09
    -2.614394534195D-10 1.000000000000D+00 2.391000000000D+03 0.000000000000D+00
     2.000000000000D+00 0.000000000000D+00-8.381903171539D-09 9.800000000000D+01
     5.327400000000D+05                   
G24 2025 11 08 04 00 00-2.446840517223D-04 1.296029950026D-11 0.000000000000D+00
     1.000000000000D+02-3.687500000000D+00 5.468799191277D-09 1.631607596011D+00
    -4.414469003677D-07 1.767766138073D-02 5.912035703659D-06 5.153650400162D+03
     5.328000000000D+05-3.725290298462D-07 1.940938502005D+00-2.924352884293D-07
     9.341977069586D-01 2.543750000000D+02 1.113223551852D+00-8.479996260746D-09
     2.210806399061D-10 1.000000000000D+00 2.391000000000D+03 0.000000000000D+00
     2.000000000000D+00 0.000000000000D+00 2.328306436539D-09 1.000000000000D+02
     5.255400000000D+05                   
G25 2025 11 08 06 00 00 4.627755843103D-04-2.046363078989D-12 0.000000000000D+00
     2.200000000000D+01 1.412500000000D+01 4.774127315699D-09 9.857439531752D-01
     6.705522537231D-07 1.264987792820D-02 1.000985503197D-05 5.153773971558D+03
     5.400000000000D+05-1.695007085800D-07 3.072042268720D+00-5.587935447693D-09
     9.482419853077D-01 1.814687500000D+02 1.136714013661D+00-8.161411102492D-09
    -6.693136045399D-10 1.000000000000D+00 2.391000000000D+03 0.000000000000D+00
     2.000000000000D+00 0.000000000000D+00 5.587935447693D-09 2.200000000000D+01
     5.327400000000D+05                   
G26 2025 11 08 12 00 00-2.775522880256D-04-4.661160346586D-12 0.000000000000D+00
     5.800000000000D+01 9.156250000000D+00 5.153071747088D-09-3.007198777420D+00
     3.986060619354D-07 1.068210159428D-02 9.268522262573D-06 5.153656961441D+03
     5.616000000000D+05-3.725290298462D-09 2.999544835379D+00-1.471489667892D-07
     9.289496024568D-01 1.836250000000D+02 6.727312744379D-01-7.989618744375D-09
    -6.153828002731D-10 1.000000000000D+00 2.391000000000D+03 0.000000000000D+00
     2.000000000000D+00 0.000000000000D+00 6.519258022308D-09 5.800000000000D+01
     5.543400000000D+05                   
G27 2025 11 08 11 59 44-3.505405038595D-05-3.865352482535D-12 0.000000000000D+00
     2.200000000000D+01 1.566250000000D+02 4.357681326894D-09 1.511015052848D+00
     8.055940270424D-06 1.373911544215D-02 8.972361683846D-06 5.153667617798D+03
     5.615840000000D+05-2.738088369370D-07-2.155634770589D+00 4.097819328308D-08
     9.544046286580D-01 2.031875000000D+02 8.557464106215D-01-8.116052718776D-09
    -9.000374751045D-11 1.000000000000D+00 2.391000000000D+03 0.000000000000D+00
     2.000000000000D+00 0.000000000000D+00 1.862645149231D-09 2.200000000000D+01
     5.543100000000D+05                   
G28 2025 11 08 10 00 00-6.330641917884D-04 2.273736754432D-12 0.000000000000D+00
     1.550000000000D+02-7.906250000000D+00 4.874845860314D-09-2.615820893611D+00
    -3.781169652939D-07 4.313095705584D-04 6.053596735001D-06 5.153703752518D+03
     5.544000000000D+05 2.235174179077D-08 2.020182525854D+00 2.048909664154D-08
     9.612763337721D-01 2.642187500000D+02 5.342862284688D-01-8.004619189705D-09
     7.893186104724D-11 1.000000000000D+00 2.391000000000D+03 0.000000000000D+00
     2.000000000000D+00 0.000000000000D+00-9.313225746155D-09 9.230000000000D+02
     5.471400000000D+05                   
G29 2025 11 08 08 00 00-4.286514595151D-04 5.798028723802D-12 0.000000000000D+00
     8.600000000000D+01 1.598125000000D+02 4.197317604593D-09-7.553413425874D-01
     8.091330528259D-06 3.305139718577D-03 7.594004273415D-06 5.153579555511D+03
     5.472000000000D+05-5.587935447693D-09-2.067195952586D+00-5.587935447693D-08
     9.635885460164D-01 2.317187500000D+02 2.784535018100D+00-7.977117633118D-09
     1.621496131810D-10 1.000000000000D+00 2.391000000000D+03 0.000000000000D+00
     2.000000000000D+00 0.000000000000D+00-9.778887033463D-09 8.600000000000D+01
     5.399400000000D+05                   
G30 2025 11 08 13 59 44 1.833634451032D-05 1.159605744760D-11 0.000000000000D+00
     1.200000000000D+01-3.156250000000D+00 5.544159353832D-09-4.906525491910D-01
    -2.048909664154D-07 7.698830915615D-03 5.843117833138D-06 5.153583179474D+03
     5.687840000000D+05-2.235174179077D-08 2.039821652474D+00 1.005828380585D-07
     9.355457640248D-01 2.514062500000D+02-2.353871044200D+00-8.480710356196D-09
     5.607376368788D-11 1.000000000000D+00 2.391000000000D+03 0.000000000000D+00
     2.000000000000D+00 0.000000000000D+00 4.190951585770D-09 1.200000000000D+01
     5.615100000000D+05                   
